[
    {
        "ID":1,
        "CompanyName": "Zone Toys",
        "Address":"1945 S  Cliage  Boulvard",
        "City":"Los Angeles",
        "State":"California",
        "Zipcode":90034,
        "Phone": "(310) 237-5042",
        "Fax": "(310) 237-5043",
        "Website": "http://www.nowebsitetoys.com"
    },
    {
        "ID":2,
        "CompanyName": "Park Toys",
        "Address":"192 S  Cliage  Boulvard",
        "City":"Atlanta",
        "State":"Utah",
        "Zipcode":30034,
        "Phone": "(310) 237-5042",
        "Fax": "(310) 237-5043",
        "Website": "http://www.nowparktoys.com"
    },
    {
        "ID":3,
        "CompanyName": "Zant Toys",
        "Address":"1945 S  Cliage  Boulvard",
        "City":"Georgia",
        "State":"Washinton",
        "Zipcode":60034,
        "Phone": "(310) 237-5042",
        "Fax": "(310) 237-5043",
        "Website": "http://www.nzantsitetoys.com"
    },
    
    {
        "ID":4,
        "CompanyName": "ACME",
        "Address":"1975 S  Cliage  Boulvard",
        "City":"Zorn",
        "State":"Miami",
        "Zipcode":90034,
        "Phone": "(310) 237-5042",
        "Fax": "(310) 237-5043",
        "Website": "http://www.acme.com"
    },
    {
        "ID":5,
        "CompanyName": "Zones",
        "Address":"1 Miami  Boulvard",
        "City":"Los Altos",
        "State":"Nevada",
        "Zipcode":80034,
        "Phone": "(310) 237-5042",
        "Fax": "(310) 237-5043",
        "Website": "http://www.nowzones.com"
    },
    
    {
        "ID":6,
        "CompanyName": "ZT",
        "Address":"1945 S Fun  Boulvard",
        "City":"Delph",
        "State":"Utah",
        "Zipcode":20034,
        "Phone": "(310) 237-5042",
        "Fax": "(310) 237-5043",
        "Website": "http://www.nowzt.com"
    },
    {
        "ID":7,
        "CompanyName": "MR",
        "Address":"Ert  Boulvard",
        "City":"Miray",
        "State":"Palo Alto",
        "Zipcode":12034,
        "Phone": "(310) 237-5042",
        "Fax": "(310) 237-5043",
        "Website": "http://www.mrcalm.com"
    },
    {
        "ID":8,
        "CompanyName": "Zwers",
        "Address":"1945 S  Client  Boulvard",
        "City":"Clnt",
        "State":"Zint",
        "Zipcode":90034,
        "Phone": "(310) 237-5042",
        "Fax": "(310) 237-5043",
        "Website": "http://www.zwers.com"
    },
    {
        "ID":9,
        "CompanyName": "ZPRE",
        "Address":"Run  Boulvard",
        "City":"Lopez",
        "State":"Tai",
        "Zipcode":89034,
        "Phone": "(310) 237-5042",
        "Fax": "(310) 237-5043",
        "Website": "http://www.zpre.com"
    },
    
    {
        "ID":10,
        "CompanyName": "fast shirt",
        "Address":"Proud  Boulvard",
        "City":"Obama",
        "State":"Zamst",
        "Zipcode":90034,
        "Phone": "(310) 237-5042",
        "Fax": "(310) 237-5043",
        "Website": "http://www.fastshirt.com"
    },
    {
        "ID":11,
        "CompanyName": "Cool",
        "Address":"1 Cool  Boulvard",
        "City":" Utah",
        "State":"Washinton",
        "Zipcode":93434,
        "Phone": "(310) 237-5042",
        "Fax": "(310) 237-5043",
        "Website": "http://www.coolzone.com"
    },
    {
        "ID":12,
        "CompanyName": "Zax",
        "Address":"FOSS  Boulvard",
        "City":" Fun",
        "State":"Caern",
        "Zipcode":93434,
        "Phone": "(310) 237-5042",
        "Fax": "(310) 237-5043",
        "Website": "http://www.zax.com"
    }
]